NORAD_CAT_ID,OBJECT_NAME,OBJECT_TYPE,EPOCH,MEAN_MOTION,ECCENTRICITY,INCLINATION,RA_OF_ASC_NODE,ARG_OF_PERICENTER,MEAN_ANOMALY,BSTAR,MEAN_MOTION_DOT,MEAN_MOTION_DDOT,TLE_LINE0,TLE_LINE1,TLE_LINE2,SEMIMAJOR_AXIS,PERIOD,APOGEE,PERIGEE,DECAYED
53845.0,STARLINK-4753,PAYLOAD,2023-06-27 20:28:30,15.08836363,8.93e-05,53.2178,39.7426,85.6868,274.4226,7.8347e-05,9.59e-06,0.0,0 STARLINK-4753,1 53845U 22114AD  23178.85312899  .00000959  00000-0  78347-4 0  9997,2 53845  53.2178  39.7426 0000893  85.6868 274.4226 15.08836363 43608,6917.892,95.438,540.374,539.139,0.0
53845.0,STARLINK-4753,PAYLOAD,2023-06-28 01:14:39,15.08843129,9.26e-05,53.2176,38.8503,91.3178,268.792,0.00014555,2.03e-05,0.0,0 STARLINK-4753,1 53845U 22114AD  23179.05184342  .00002030  00000-0  14555-3 0  9992,2 53845  53.2176  38.8503 0000926  91.3178 268.7920 15.08843129 43635,6917.871,95.437,540.376,539.095,0.0
53845.0,STARLINK-4753,PAYLOAD,2023-06-28 18:43:54,15.08834734,9.84e-05,53.2165,35.5789,92.1145,267.996,7.3278e-05,8.79e-06,0.0,0 STARLINK-4753,1 53845U 22114AD  23179.78049221  .00000879  00000-0  73278-4 0  9995,2 53845  53.2165  35.5789 0000984  92.1145 267.9960 15.08834734 43749,6917.896,95.438,540.442,539.081,0.0
53845.0,STARLINK-4753,PAYLOAD,2023-06-28 21:54:40,15.08840646,8.38e-05,53.2166,34.9832,93.1481,266.9607,8.6789e-05,1.094e-05,0.0,0 STARLINK-4753,1 53845U 22114AD  23179.91296794  .00001094  00000-0  86789-4 0  9990,2 53845  53.2166  34.9832 0000838  93.1481 266.9607 15.08840646 43762,6917.878,95.438,540.323,539.164,0.0
53845.0,STARLINK-4753,PAYLOAD,2023-06-30 13:39:19,15.08838971,9.19e-05,53.2178,27.5506,79.2969,280.8127,9.9976e-05,1.304e-05,0.0,0 STARLINK-4753,1 53845U 22114AD  23181.56897054  .00001304  00000-0  99976-4 0  9996,2 53845  53.2178  27.5506 0000919  79.2969 280.8127 15.08838971 44016,6917.884,95.438,540.384,539.113,0.0
53845.0,STARLINK-4753,PAYLOAD,2023-06-30 20:00:51,15.08847524,8.88e-05,53.2173,26.3608,106.0681,254.0408,3.1321e-05,2.11e-06,0.0,0 STARLINK-4753,1 53845U 22114AD  23181.83392630  .00000211  00000-0  31321-4 0  9992,2 53845  53.2173  26.3608 0000888 106.0681 254.0408 15.08847524 44059,6917.857,95.437,540.337,539.108,0.0
53845.0,STARLINK-4753,PAYLOAD,2023-07-01 18:16:14,15.08877741,0.0001067,53.2174,22.1971,73.6424,286.4686,-0.0004574,-7.567e-05,0.0,0 STARLINK-4753,1 53845U 22114AD  23182.76127385 -.00007567  00000-0 -45740-3 0  9990,2 53845  53.2174  22.1971 0001067  73.6424 286.4686 15.08877741 44197,6917.765,95.435,540.368,538.892,0.0
53845.0,STARLINK-4753,PAYLOAD,2023-07-01 19:51:45,15.08737774,0.0001125,53.2176,21.8992,81.4663,278.6456,-0.00084904,-0.00013737,0.0,0 STARLINK-4753,1 53845U 22114AD  23182.82761528 -.00013737  00000-0 -84904-3 0  9991,2 53845  53.2176  21.8992 0001125  81.4663 278.6456 15.08737774 44206,6918.193,95.444,540.836,539.28,0.0
53845.0,STARLINK-4753,PAYLOAD,2023-07-02 13:20:52,15.08844463,7.98e-05,53.2179,18.6285,91.6914,268.417,0.00011762,1.585e-05,0.0,0 STARLINK-4753,1 53845U 22114AD  23183.55616377  .00001585  00000-0  11762-3 0  9991,2 53845  53.2179  18.6285 0000798  91.6914 268.4170 15.08844463 44311,6917.867,95.437,540.284,539.18,0.0
53845.0,STARLINK-4753,PAYLOAD,2023-07-02 19:42:25,15.08840634,8.72e-05,53.2182,17.4405,80.3846,279.7245,7.5746e-05,9.18e-06,0.0,0 STARLINK-4753,1 53845U 22114AD  23183.82113015  .00000918  00000-0  75746-4 0  9994,2 53845  53.2182  17.4405 0000872  80.3846 279.7245 15.08840634 44356,6917.878,95.438,540.347,539.14,0.0
53845.0,STARLINK-4753,PAYLOAD,2023-07-03 11:36:17,15.08832973,9.5e-05,53.219,14.4722,59.2987,300.8099,4.713e-05,4.62e-06,0.0,0 STARLINK-4753,1 53845U 22114AD  23184.48353705  .00000462  00000-0  47130-4 0  9999,2 53845  53.2190  14.4722 0000950  59.2987 300.8099 15.08832973 44453,6917.902,95.438,540.424,539.11,0.0
53845.0,STARLINK-4753,PAYLOAD,2023-07-03 17:57:50,15.0882643,9.37e-05,53.2184,13.2766,101.4928,258.6169,-6.1614e-05,-1.268e-05,0.0,0 STARLINK-4753,1 53845U 22114AD  23184.74850682 -.00001268  00000-0 -61614-4 0  9994,2 53845  53.2184  13.2766 0000937 101.4928 258.6169 15.08826430 44494,6917.922,95.438,540.435,539.139,0.0
53845.0,STARLINK-4753,PAYLOAD,2023-07-04 11:27:05,15.08834869,8.93e-05,53.2179,10.0046,72.4077,287.7013,3.868e-05,3.28e-06,0.0,0 STARLINK-4753,1 53845U 22114AD  23185.47714429  .00000328  00000-0  38680-4 0  9994,2 53845  53.2179  10.0046 0000893  72.4077 287.7013 15.08834869 44606,6917.896,95.438,540.379,539.143,0.0
53845.0,STARLINK-4753,PAYLOAD,2023-07-04 22:34:46,15.08843023,8.52e-05,53.2178,7.9237,77.6096,282.4991,0.00015706,2.213e-05,0.0,0 STARLINK-4753,1 53845U 22114AD  23185.94081775  .00002213  00000-0  15706-3 0  9995,2 53845  53.2178   7.9237 0000852  77.6096 282.4991 15.08843023 44671,6917.871,95.437,540.326,539.147,0.0
53845.0,STARLINK-4753,PAYLOAD,2023-07-05 04:56:19,15.08837667,8.99e-05,53.2177,6.7342,74.9884,285.1208,0.00020998,3.055e-05,0.0,0 STARLINK-4753,1 53845U 22114AD  23186.20578153  .00003055  00000-0  20998-3 0  9990,2 53845  53.2177   6.7342 0000899  74.9884 285.1208 15.08837667 44713,6917.888,95.438,540.374,539.131,0.0
53845.0,STARLINK-4753,PAYLOAD,2023-07-05 22:25:33,15.08850953,8.14e-05,53.2165,3.4629,75.5363,284.572,0.00033442,5.04e-05,0.0,0 STARLINK-4753,1 53845U 22114AD  23186.93441567  .00005040  00000-0  33442-3 0  9992,2 53845  53.2165   3.4629 0000814  75.5363 284.5720 15.08850953 44825,6917.847,95.437,540.275,539.149,0.0
53845.0,STARLINK-4753,PAYLOAD,2023-07-06 11:08:38,15.08845193,9.61e-05,53.2163,1.084,78.6013,281.5087,0.00012923,1.77e-05,0.0,0 STARLINK-4753,1 53845U 22114AD  23187.46433812  .00001770  00000-0  12923-3 0  9992,2 53845  53.2163   1.0840 0000961  78.6013 281.5087 15.08845193 44903,6917.865,95.437,540.394,539.065,0.0
53845.0,STARLINK-4753,PAYLOAD,2023-07-06 23:51:43,15.08856904,9.26e-05,53.217,358.7049,78.5661,281.5435,0.0001935,2.795e-05,0.0,0 STARLINK-4753,1 53845U 22114AD  23187.99424979  .00002795  00000-0  19350-3 0  9993,2 53845  53.2170 358.7049 0000926  78.5661 281.5435 15.08856904 44980,6917.829,95.436,540.334,539.053,0.0
53845.0,STARLINK-4753,PAYLOAD,2023-07-07 10:59:25,15.08838863,6.38e-05,53.2169,356.6228,94.5645,265.542,-7.1182e-05,-1.42e-05,0.0,0 STARLINK-4753,1 53845U 22114AD  23188.45793504 -.00001420  00000-0 -71182-4 0  9996,2 53845  53.2169 356.6228 0000638  94.5645 265.5420 15.08838863 45053,6917.884,95.438,540.19,539.308,0.0
53845.0,STARLINK-4753,PAYLOAD,2023-07-07 17:20:57,15.08850516,8.35e-05,53.2165,355.4341,89.4211,270.6877,0.00019504,2.819e-05,0.0,0 STARLINK-4753,1 53845U 22114AD  23188.72289151  .00002819  00000-0  19504-3 0  9994,2 53845  53.2165 355.4341 0000835  89.4211 270.6877 15.08850516 45099,6917.848,95.437,540.291,539.136,0.0
53845.0,STARLINK-4753,PAYLOAD,2023-07-08 10:50:12,15.08842651,8.07e-05,53.2155,352.1632,90.8303,269.2782,0.00018742,2.697e-05,0.0,0 STARLINK-4753,1 53845U 22114AD  23189.45153455  .00002697  00000-0  18742-3 0  9999,2 53845  53.2155 352.1632 0000807  90.8303 269.2782 15.08842651 45205,6917.872,95.437,540.296,539.179,0.0
53845.0,STARLINK-4753,PAYLOAD,2023-07-09 10:41:00,15.08833908,8.6e-05,53.2171,347.7033,81.5217,278.5872,7.8199e-05,9.57e-06,0.0,0 STARLINK-4753,1 53845U 22114AD  23190.44514083  .00000957  00000-0  78199-4 0  9998,2 53845  53.2171 347.7033 0000860  81.5217 278.5872 15.08833908 45352,6917.899,95.438,540.359,539.169,0.0
53845.0,STARLINK-4753,PAYLOAD,2023-07-10 15:17:56,15.08844124,9.79e-05,53.217,342.3508,78.8581,281.2521,0.00017031,2.424e-05,0.0,0 STARLINK-4753,1 53845U 22114AD  23191.63745744  .00002424  00000-0  17031-3 0  9998,2 53845  53.2170 342.3508 0000979  78.8581 281.2521 15.08844124 45537,6917.868,95.437,540.41,539.056,0.0
53845.0,STARLINK-4753,PAYLOAD,2023-07-10 21:39:28,15.08851443,8.57e-05,53.2183,341.1609,84.2449,275.8641,0.00017456,2.492e-05,0.0,0 STARLINK-4753,1 53845U 22114AD  23191.90240907  .00002492  00000-0  17456-3 0  9995,2 53845  53.2183 341.1609 0000857  84.2449 275.8641 15.08851443 45577,6917.845,95.437,540.303,539.118,0.0
53845.0,STARLINK-4753,PAYLOAD,2023-07-11 10:22:34,15.0883636,8.67e-05,53.2172,338.7826,84.9501,275.1591,6.8189e-05,7.98e-06,0.0,0 STARLINK-4753,1 53845U 22114AD  23192.43234069  .00000798  00000-0  68189-4 0  9993,2 53845  53.2172 338.7826 0000867  84.9501 275.1591 15.08836360 45652,6917.892,95.438,540.356,539.157,0.0
53845.0,STARLINK-4753,PAYLOAD,2023-07-11 16:44:06,15.08846857,9.89e-05,53.2169,337.5934,85.0344,275.0761,0.0002074,3.015e-05,0.0,0 STARLINK-4753,1 53845U 22114AD  23192.69729587  .00003015  00000-0  20740-3 0  9990,2 53845  53.2169 337.5934 0000989  85.0344 275.0761 15.08846857 45691,6917.859,95.437,540.409,539.04,0.0
53845.0,STARLINK-4753,PAYLOAD,2023-07-12 16:34:53,15.08840089,9.03e-05,53.2176,333.1333,83.3103,276.7992,7.3081e-07,-2.76e-06,0.0,0 STARLINK-4753,1 53845U 22114AD  23193.69089909 -.00000276  00000-0  73081-6 0  9994,2 53845  53.2176 333.1333 0000903  83.3103 276.7992 15.08840089 45846,6917.88,95.438,540.37,539.12,0.0
53845.0,STARLINK-4753,PAYLOAD,2023-07-14 08:19:32,15.08837575,0.0001229,53.2186,325.6989,78.3813,281.7317,9.2756e-05,1.189e-05,0.0,0 STARLINK-4753,1 53845U 22114AD  23195.34690504  .00001189  00000-0  92756-4 0  9998,2 53845  53.2186 325.6989 0001229  78.3813 281.7317 15.08837575 46095,6917.888,95.438,540.603,538.903,0.0
53845.0,STARLINK-4753,PAYLOAD,2023-07-14 16:16:27,15.08846557,0.0001004,53.2178,324.2141,81.4228,278.6878,5.5381e-05,5.94e-06,0.0,0 STARLINK-4753,1 53845U 22114AD  23195.67809961  .00000594  00000-0  55381-4 0  9995,2 53845  53.2178 324.2141 0001004  81.4228 278.6878 15.08846557 46140,6917.86,95.437,540.42,539.031,0.0
53845.0,STARLINK-4753,PAYLOAD,2023-07-15 01:48:47,15.08827801,3.86e-05,53.2175,322.428,100.7299,259.3736,-6.9118e-05,-1.387e-05,0.0,0 STARLINK-4753,1 53845U 22114AD  23196.07554633 -.00001387  00000-0 -69118-4 0  9999,2 53845  53.2175 322.4280 0000386 100.7299 259.3736 15.08827801 46203,6917.918,95.438,540.05,539.516,0.0
